METOP-B                 
1 38771U 12049A   23030.20969115  .00000107  00000+0  68966-4 0  9999
2 38771  98.6999  91.7637 0001672  96.1372 340.1971 14.21505458537943
METEOR-M2 2             
1 44387U 19038A   23030.22005408  .00000092  00000+0  59604-4 0  9994
2 44387  98.7556 354.5459 0001541  22.6025 337.5224 14.23745434185671
NOAA 15                 
1 25338U 98030A   23030.16772641  .00000166  00000+0  87483-4 0  9999
2 25338  98.6227  61.4791 0010289   2.5428 357.5803 14.26232521285583
NOAA 18                 
1 28654U 05018A   23030.11760842  .00000191  00000+0  12660-3 0  9994
2 28654  98.9252 105.1092 0014891  53.7174 306.5371 14.12850659912075
NOAA 19                 
1 33591U 09005A   23030.28665431  .00000165  00000+0  11401-3 0  9999
2 33591  99.1213  73.8822 0012982 270.6766  89.2917 14.12677202720472
